{
  "type": "FeatureCollection",
  "name": "nagpur_traffic_junctions",
  "crs": { "type": "name", "properties": { "name": "urn:ogc:def:crs:OGC:1.3:CRS84" } },
  "features": [
    {
      "type": "Feature",
      "properties": {
        "id": "J_SITABULDI_VARIETY",
        "name": "Variety Square (Sitabuldi)",
        "area": "Sitabuldi",
        "corridor": "Wardha Road / Amravati Rd Link",
        "lanes": 4,
        "capacity_pcu_hr": 4200,
        "critical_directions": ["North-South", "East-West"],
        "has_smart_signal": true
      },
      "geometry": { "type": "Point", "coordinates": [79.0831, 21.1466] }
    },
    {
      "type": "Feature",
      "properties": {
        "id": "J_SAMVIDHAN_RBI",
        "name": "Samvidhan Chowk (RBI Square)",
        "area": "Civil Lines",
        "corridor": "Central Avenue / Wardha Road North",
        "lanes": 6,
        "capacity_pcu_hr": 5500,
        "critical_directions": ["North-South", "East-West"],
        "has_smart_signal": true
      },
      "geometry": { "type": "Point", "coordinates": [79.0864, 21.1525] }
    },
    {
      "type": "Feature",
      "properties": {
        "id": "J_LAW_COLLEGE",
        "name": "Law College Square",
        "area": "Dharampeth",
        "corridor": "Amravati Road / WHC Road",
        "lanes": 4,
        "capacity_pcu_hr": 3800,
        "critical_directions": ["East-West", "North-South"],
        "has_smart_signal": true
      },
      "geometry": { "type": "Point", "coordinates": [79.0620, 21.1528] }
    },
    {
      "type": "Feature",
      "properties": {
        "id": "J_SHANKAR_NAGAR",
        "name": "Shankar Nagar Square",
        "area": "Dharampeth / Laxmi Nagar",
        "corridor": "West High Court (WHC) Road",
        "lanes": 4,
        "capacity_pcu_hr": 3600,
        "critical_directions": ["North-South", "East-West"],
        "has_smart_signal": true
      },
      "geometry": { "type": "Point", "coordinates": [79.0625, 21.1396] }
    },
    {
      "type": "Feature",
      "properties": {
        "id": "J_RAHATE_COLONY",
        "name": "Rahate Colony Square",
        "area": "Dhantoli",
        "corridor": "Wardha Road Arterial",
        "lanes": 6,
        "capacity_pcu_hr": 4800,
        "critical_directions": ["North-South", "East-West"],
        "has_smart_signal": true
      },
      "geometry": { "type": "Point", "coordinates": [79.0760, 21.1270] }
    },
    {
      "type": "Feature",
      "properties": {
        "id": "J_AJNI_SQUARE",
        "name": "Ajni Square",
        "area": "Ajni",
        "corridor": "Wardha Road Arterial",
        "lanes": 6,
        "capacity_pcu_hr": 4900,
        "critical_directions": ["North-South", "East-West"],
        "has_smart_signal": true
      },
      "geometry": { "type": "Point", "coordinates": [79.0790, 21.1180] }
    },
    {
      "type": "Feature",
      "properties": {
        "id": "J_CHHATRAPATI_SQ",
        "name": "Chhatrapati Square",
        "area": "Pratap Nagar",
        "corridor": "Wardha Road / Ring Road",
        "lanes": 6,
        "capacity_pcu_hr": 5200,
        "critical_directions": ["North-South", "East-West"],
        "has_smart_signal": true
      },
      "geometry": { "type": "Point", "coordinates": [79.0690, 21.1105] }
    },
    {
      "type": "Feature",
      "properties": {
        "id": "J_MEDICAL_SQUARE",
        "name": "Medical Square",
        "area": "Medical College Area",
        "corridor": "Great Nag Road / Umred Road Link",
        "lanes": 4,
        "capacity_pcu_hr": 4000,
        "critical_directions": ["North-South", "East-West"],
        "has_smart_signal": true
      },
      "geometry": { "type": "Point", "coordinates": [79.0970, 21.1340] }
    },
    {
      "type": "Feature",
      "properties": {
        "id": "J_TEL_EXCHANGE",
        "name": "Telephone Exchange Square",
        "area": "Gandhibagh / CA Road",
        "corridor": "Central Avenue (CA Road)",
        "lanes": 4,
        "capacity_pcu_hr": 4100,
        "critical_directions": ["East-West", "North-South"],
        "has_smart_signal": true
      },
      "geometry": { "type": "Point", "coordinates": [79.1170, 21.1490] }
    },
    {
      "type": "Feature",
      "properties": {
        "id": "J_AUTOMOTIVE_SQ",
        "name": "Automotive Square (Kamptee Road)",
        "area": "Indora / Kamptee Road",
        "corridor": "NH-44 North corridor",
        "lanes": 6,
        "capacity_pcu_hr": 4600,
        "critical_directions": ["North-South", "East-West"],
        "has_smart_signal": true
      },
      "geometry": { "type": "Point", "coordinates": [79.1020, 21.1980] }
    }
  ]
}
